[{"_id":"6117a9759d5f822af7a60865","name":"Barcelona","price":50,"stock":33,"distance":14,"pictures":[{"_id":"6117a9759d5f822af7a60866","url":"https://media.timeout.com/images/105737732/image.jpg","placeName":"Sagrada Familia"},{"_id":"6117a9759d5f822af7a60867","url":"https://offloadmedia.feverup.com/barcelonasecreta.com/wp-content/uploads/2016/05/09111404/AZ8Q9842.jpg","placeName":"Jardins de la Tamarita"},{"_id":"6117a9759d5f822af7a60868","url":"https://offloadmedia.feverup.com/barcelonasecreta.com/wp-content/uploads/2016/05/09111403/felipneri2.jpg","placeName":"Plaza de Santo Felipe"},{"_id":"6117a9759d5f822af7a60869","url":"https://offloadmedia.feverup.com/barcelonasecreta.com/wp-content/uploads/2016/05/09111403/eggboxyq306718.jpg.pr_.jpg","placeName":"Calle Petritxol"},{"_id":"6117a9759d5f822af7a6086a","url":"https://offloadmedia.feverup.com/barcelonasecreta.com/wp-content/uploads/2018/12/09110214/kiss-of-death-poblenou-barcelona-3-1.jpg","placeName":"El beso de la muerte"}],"__v":0},{"_id":"6117aed29ced79302ab344b9","name":"Cuba","price":950,"stock":10,"distance":7740,"pictures":[{"_id":"6117aed29ced79302ab344ba","url":"https://www.guruwalk.com/blog/wp-content/uploads/2020/01/que-ver-la-habana-1.jpg","placeName":"La Habana"},{"_id":"6117aed29ced79302ab344bb","url":"https://i.ytimg.com/vi/8ch3B4RsasQ/hqdefault.jpg","placeName":"La Bodeguita del Medio"},{"_id":"6117aed29ced79302ab344bc","url":"https://aws.traveler.es/prod/designs/v1/assets/745x497/146880.jpg","placeName":"Trinidad"},{"_id":"6117aed29ced79302ab344bd","url":"https://drive.google.com/uc?export=view&id=1O9bkWtVE6a8IpqYWBAIeVO936BBI5N1F","placeName":"Valle de los Ingenios"},{"_id":"6117aed29ced79302ab344be","url":"https://www.surfingtheplanet.com/wp-content/uploads/2016/11/mar-azul-en-playa-ancon-cuba.jpg","placeName":"Playa Ancon"}],"__v":0},{"_id":"6117afe79ced79302ab344c1","name":"Japon","price":1844,"stock":101,"distance":10310,"pictures":[{"_id":"6117afe79ced79302ab344c2","url":"https://blogthinkbig.com/wp-content/uploads/sites/4/2019/05/japon-5g.jpg","placeName":"Tokyo"},{"_id":"6117afe79ced79302ab344c3","url":"https://www.nitu.mx/wp-content/uploads/2019/10/Japo%CC%81n.jpg","placeName":"Monte Fuji"},{"_id":"6117afe79ced79302ab344c4","url":"https://tipsparatuviaje.com/wp-content/uploads/2018/08/tsumago-japon.jpg","placeName":"Tsumago"},{"_id":"6117afe79ced79302ab344c5","url":"https://tipsparatuviaje.com/wp-content/uploads/2018/08/santuario-fushimi-inari-japon.jpg","placeName":"Santuario Fushimi Inari"},{"_id":"6117afe79ced79302ab344c6","url":"https://tipsparatuviaje.com/wp-content/uploads/2018/08/jigokudani-monkey-park-japon.jpg","placeName":"Jigokudani Monkey Park"}],"__v":0},{"_id":"6117b0819ced79302ab344c9","name":"Mexico","price":344,"stock":61,"distance":6310,"pictures":[{"_id":"6117b0819ced79302ab344ca","url":"https://www.viajeroscallejeros.com/wp-content/uploads/2018/05/san-cristobal-de-las-casas.jpg","placeName":"San Cristobal"},{"_id":"6117b0819ced79302ab344cb","url":"https://www.viajeroscallejeros.com/wp-content/uploads/2018/05/palenque.jpg","placeName":"Palenque"},{"_id":"6117b0819ced79302ab344cc","url":"https://www.viajeroscallejeros.com/wp-content/uploads/2018/05/holbox.jpg","placeName":"Holbox"},{"_id":"6117b0819ced79302ab344cd","url":"https://www.viajeroscallejeros.com/wp-content/uploads/2018/05/calakmul.jpg","placeName":"Cakabul"},{"_id":"6117b0819ced79302ab344ce","url":"https://www.viajeroscallejeros.com/wp-content/uploads/2018/05/izamal.jpg","placeName":"Izamal"}],"__v":0},{"_id":"6117b1199ced79302ab344d1","name":"Nueva Zelanda","price":4432,"stock":651,"distance":9324,"pictures":[{"_id":"6117b1199ced79302ab344d2","url":"https://www.viajeroscallejeros.com/wp-content/uploads/2019/04/hobbiton.jpg","placeName":"Hobbiton"},{"_id":"6117b1199ced79302ab344d3","url":"https://www.viajeroscallejeros.com/wp-content/uploads/2019/03/glaciar-tasman-monte-cook.jpg","placeName":"Monte Cook"},{"_id":"6117b1199ced79302ab344d4","url":"https://www.viajeroscallejeros.com/wp-content/uploads/2019/04/tongariro-nueva-zelanda.jpg","placeName":"Tongariro"},{"_id":"6117b1199ced79302ab344d5","url":"https://www.viajeroscallejeros.com/wp-content/uploads/2019/04/roys-peak.jpg","placeName":"Wanaka"},{"_id":"6117b1199ced79302ab344d6","url":"https://www.viajeroscallejeros.com/wp-content/uploads/2019/04/milford-sound.jpg","placeName":"Milford Sound"}],"__v":0}]